COSMOS 2361 [-]         
1 25590U 98076A   22260.19375727  .00000044  00000+0  31500-4 0  9994
2 25590  82.9346 138.3646 0030688 315.4788 168.3612 13.73027450188823
COSMOS 2378 [-]         
1 26818U 01023A   22260.59272160  .00000067  00000+0  55271-4 0  9991
2 26818  82.9310 155.9396 0031647 258.6912 101.0688 13.73975327 66960
COSMOS 2389 [-]         
1 27436U 02026A   22260.55863543  .00000040  00000+0  25588-4 0  9998
2 27436  82.9468 101.8510 0047529 117.9526 299.5722 13.74981959 19029
COSMOS 2398 [-]         
1 27818U 03023A   22260.58070437  .00000031  00000+0  16717-4 0  9999
2 27818  82.9453  63.7147 0031701 153.8091 206.4675 13.72216693966029
COSMOS 2407 [+]         
1 28380U 04028A   22260.63017309  .00000061  00000+0  46658-4 0  9995
2 28380  82.9646   8.1802 0040336 118.6758 241.8472 13.76119939911838
COSMOS 2414 [+]         
1 28521U 05002A   22260.39953266  .00000068  00000+0  44669-4 0  9996
2 28521  82.9547 358.7191 0038963 272.3603  87.3097 13.87664902894305
COSMOS 2429 [-]         
1 32052U 07038A   22260.35493130  .00000048  00000+0  33262-4 0  9991
2 32052  82.9803 134.6186 0039760  97.2334 263.3345 13.74968607753536
COSMOS 2454 [-]         
1 35635U 09039A   22260.45738355  .00000062  00000+0  37367-4 0  9992
2 35635  82.9609 344.8555 0018336 212.3058 147.6980 13.89694130667473
COSMOS 2463 [+]         
1 36519U 10017A   22260.52627948  .00000048  00000+0  36569-4 0  9992
2 36519  82.9644 175.1880 0035627 329.6501 203.7923 13.71479679620310
